#cP2024  2 10  0  0  0.00000000     577 d+D   IGS20 EXT AIUB
## 2300 518400.00000000   300.00000000 60350 0.0000000000000
+   75   G03G04G05G06G07G08G09G11G12G13G14G15G16G17G18G19G20
+        G21G22G23G24G25G26G27G28G29G30G31G32R01R02R03R04R05
+        R07R08R09R11R12R13R14R15R16R17R18R19R20R21R22R24E02
+        E03E04E05E07E08E09E10E11E12E13E14E15E18E19E21E24E25
+        E26E27E30E31E33E34E36  0  0  0  0  0  0  0  0  0  0
++         6  6  7  7  7  6  5  7  7  7  6  9  7  7  7  7  7
++         7  7  6  7  6  6  6  5  7  7  8  6  9  8  8  8  8
++         8  8  6  6  6  7  6  6  7  8  7  8  9  8  6  8  6
++         6  7  7  9  7  7  7  7  7  7  7  6  7  7  6  6  6
++         7  6  7  6  7  7  7  0  0  0  0  0  0  0  0  0  0
%c M  cc GPS ccc cccc cccc cccc cccc ccccc ccccc ccccc ccccc
%c cc cc ccc ccc cccc cccc cccc cccc ccccc ccccc ccccc ccccc
%f  1.2500000  1.025000000  0.00000000000  0.000000000000000
%f  0.0000000  0.000000000  0.00000000000  0.000000000000000
%i    0    0    0    0      0      0      0      0         0
%i    0    0    0    0      0      0      0      0         0
/* Center for Orbit Determination in Europe (CODE)          
/* Ultra-rapid GRE orbits starting year-day 24041 00 hour   
/* Observed/predicted: 24/24 hours (data used up to 041X)   
/* PCV:IGS20      OL/AL:FES2014b NONE     YN ORB:CoN CLK:BRD
*  2024  2 10 17 55  0.00000000
PG03   6406.622933 -13521.038181 -22080.553386    184.632457
PG04   3078.385680 -23469.149926 -11893.899116    288.400249
PG05 -18719.532532   7839.609857  17007.621911   -161.306420
PG06 -17764.553466   -763.740540 -19695.788553    412.240480
PG07  -3300.679126 -17202.781157  20322.176668    -58.775193
PG08   8218.651496 -17270.864306  18148.771692   -166.368183
PG09  -7365.127666 -25486.042993   -100.045023     87.746413
PG11 -22037.834395   9177.472958 -11568.339843   -571.274218
PG12  -7877.673420  13362.366205 -21842.218394   -476.674452
PG13 -13566.426746   8060.462583  21124.941404    624.301016
PG14 -20827.414383 -13519.457350   9708.569822    322.246105
PG15  -6240.591162  18311.398828  17619.920920    126.333423
PG16  23324.839837   -929.247717  12755.507443   -365.543976
PG17 -12453.056808 -19712.640305 -12150.277664    717.405302
PG18   3508.897130  16163.741267  20752.374946   -552.627565
PG19 -14967.274290 -11554.947208 -18984.071186    438.824058
PG20 -25799.733777   1790.894877   5720.080364    388.003932
PG21  17029.066858 -19669.152087    623.692980    135.407218
PG22 -23955.693421 -10860.469945   2697.531100     33.411360
PG23  14204.149149  15041.832371  16786.653133    153.387394
PG24 -14556.642237  21713.620058  -3598.052622   -429.511227
PG25   4873.725115  16458.239518 -20671.837864    488.175473
PG26  26447.419813   3363.698339   2160.846590    191.609394
PG27  14427.564556  -4160.648683  21629.989239     -2.850563
PG28  16460.810179   3439.737014 -20577.486744   -126.652095
PG29   3929.949200  26178.778752  -1367.901189   -607.220617
PG30 -12950.838069  -9344.196855  21368.246789   -434.297865
PG31  21299.575268  -5150.493747 -15495.951975   -227.720217
PG32  15020.075923  16386.065264 -14492.075454   -610.882420
PR01 -16540.867617 -19346.788401   1761.816463     76.816765
PR02 -16446.217905  -8433.555359  17594.423610    -22.461088
PR03  -7635.974694   7878.227363  23080.771324     94.283468
PR04   5114.828605  19295.076206  15924.288841    222.857928
PR05  15068.959671  20598.617391    177.859758    126.703665
PR07   7065.145827  -8519.308134 -22934.161873     75.524329
PR08  -5414.434992 -19370.651414 -15602.223883    -74.359393
PR09  24909.665792  -1318.705284  -5118.401537    169.280253
PR11   6413.301371 -11392.069513  21904.587607     34.769472
PR12 -14403.818512  -7627.076538  19632.328970     36.595443
PR13 -24385.523163   -156.101387   7450.867616    -44.226581
PR14 -20862.565473   8692.519110 -11838.692254     26.038848
PR15  -4888.610537  11444.674501 -22255.188251     82.313471
PR16  14150.129016   7526.297020 -19831.461956     23.181206
PR17 -13379.443656  18985.345160 -10497.557777     60.139867
PR18  -7527.044583  23656.660604   6008.266509    126.706313
PR19    775.354168  17490.252848  18556.167653   -265.323942
PR20  12041.285637  -2019.921125  22399.872660   -108.079257
PR21  13460.907302 -19098.764618  10258.799541    -75.922404
PR22   7522.055253 -23348.294809  -6935.247876    107.457719
PR24 -12552.996356   2977.611302 -21983.573202    -43.378395
PE02 -26876.476265   1013.636106 -12349.776500    102.319590
PE03 -16251.507905   4859.457573  24255.968573    -92.945184
PE04   5939.333560 -23801.233857 -16555.238885   -324.205491
PE05 -16932.785573 -16622.984799  17699.213039   4718.785025
PE07   7449.206028  28642.529441   -338.949473   -103.074321
PE08  -6305.204851  23305.038348  17122.007900   -221.809295
PE09  -7393.819703 -28666.694578    232.308623   -331.319331
PE10   9947.412974 -23338.337264 -15248.349396   -600.925943
PE11     29.198492 -19802.716390 -21997.978118   3253.680612
PE12  17293.913552 -22975.528030  -6961.100804   -900.644703
PE13   -738.593634  20122.646756  21708.677496    -20.143040
PE14  15907.260622  -2743.400550  19100.703046 999999.999999
PE15 -17649.952798  22880.862952   6453.913495    -85.065552
PE18 -20664.985538  -7244.043276 -22414.149368 999999.999999
PE19  16741.659422  -2188.608321 -24304.573759   -640.551500
PE21  26670.897373  11637.632457  -5453.260429   -578.344753
PE24 -10342.537102 -18159.695684  20928.938912   -590.924631
PE25 -26491.641717 -11842.454958   5810.500385      0.710111
PE26  16883.905107   5194.074634  23759.889153    364.943454
PE27  10860.229839  18082.645438 -20778.794548   -271.406228
PE30 -11464.528274  13713.315396 -23608.934776   -896.220232
PE31  11188.873887 -13790.074545  23680.340636    -15.699948
PE33  23950.518779 -11726.433046  12853.737857      7.386260
PE34 -23953.496148  12228.131622 -12362.807742    -93.898106
PE36 -16340.851088  -5637.044590 -24023.964745   -184.096014
EOF
